0 DELTA 1 DEB
1 12234U 78026CB  13283.79739822  .00000299  00000-0  22036-3 0  2707
2 12234 098.7189 272.7207 0028461 002.3167 118.8692 14.02662295672516
0 DELTA 1 DEB
1 12234U 78026CB  13286.50834650  .00000354  00000-0  25594-3 0  2720
2 12234 098.7193 275.3163 0028332 354.5481 128.2218 14.02663603672893
0 DELTA 1 DEB
1 12234U 78026CB  13287.86230508  .00000394  00000-0  28154-3 0  2732
2 12234 098.7196 276.6127 0028280 350.6746 125.2440 14.02664614673082
0 DELTA 1 DEB
1 12234U 78026CB  13288.92186206  .00000401  00000-0  28621-3 0  2744
2 12234 098.7198 277.6272 0028241 347.7092 075.5765 14.02665484673234
0 DELTA 1 DEB
1 12234U 78026CB  13290.43781872  .00000405  00000-0  28894-3 0  2750
2 12234 098.7203 279.0787 0028178 343.3832 170.6316 14.02666738673446
0 DELTA 1 DEB
1 12234U 78026CB  13291.50136531  .00000401  00000-0  28591-3 0  2766
2 12234 098.7207 280.0970 0028151 340.3653 141.1598 14.02667670673592
0 DELTA 1 DEB
1 12234U 78026CB  13292.85560456  .00000403  00000-0  28719-3 0  2777
2 12234 098.7211 281.3937 0028104 336.5295 139.5801 14.02668830673789
0 DELTA 1 DEB
1 12234U 78026CB  13294.49705499  .00000374  00000-0  26875-3 0  2786
2 12234 098.7215 282.9656 0028044 331.9298 148.2698 14.02670604674013
0 DELTA 1 DEB
1 12234U 78026CB  13295.85161005  .00000359  00000-0  25872-3 0  2796
2 12234 098.7217 284.2630 0028004 328.1386 148.2527 14.02671956674207
